OBJECT_NAME,OBJECT_ID,EPOCH,MEAN_MOTION,ECCENTRICITY,INCLINATION,RA_OF_ASC_NODE,ARG_OF_PERICENTER,MEAN_ANOMALY,EPHEMERIS_TYPE,CLASSIFICATION_TYPE,NORAD_CAT_ID,ELEMENT_SET_NO,REV_AT_EPOCH,BSTAR,MEAN_MOTION_DOT,MEAN_MOTION_DDOT
ONEWEB-0534,2023-029B,2026-06-22T12:46:59.484288,13.20771912,.00019059,87.9188,273.4042,101.6553,258.4794,0,U,55797,999,16185,.75574632E-4,.44E-6,0
ONEWEB-0556,2023-029C,2026-06-22T12:56:40.203744,13.20774348,.00014276,87.9183,273.4018,79.4178,280.7116,0,U,55798,999,16185,.29040693E-3,.131E-5,0
ONEWEB-0562,2023-029D,2026-06-22T12:37:17.724576,13.20771391,.0002103,87.9185,273.3857,76.2844,283.8523,0,U,55799,999,16185,.13949544E-3,.7E-6,0
ONEWEB-0563,2023-029E,2026-06-22T16:08:12.285888,13.20772610,.00018026,87.9185,273.3868,104.9371,255.1962,0,U,55800,999,16186,-.39826837E-4,-.3E-7,0
ONEWEB-0564,2023-029F,2026-06-22T12:20:20.312736,13.20771321,.0002089,87.9186,273.3918,89.2725,270.8648,0,U,55801,999,16185,-.48580984E-4,-.7E-7,0
ONEWEB-0638,2023-029G,2026-06-22T08:10:39.198144,13.14504044,.00016483,87.8960,288.7241,84.6848,275.4469,0,U,55802,999,16007,-.34606958E-3,-.116E-5,0
ONEWEB-0639,2023-029H,2026-06-22T15:24:59.942880,13.19725784,.00015819,87.9175,303.8889,131.1178,229.0092,0,U,55803,999,15962,.76006926E-4,.43E-6,0
ONEWEB-0640,2023-029J,2026-06-22T13:53:10.188960,13.14503575,.00012756,87.8958,288.6677,90.9843,269.1433,0,U,55804,999,16012,-.55725247E-3,-.194E-5,0
ONEWEB-0641,2023-029K,2026-06-22T15:18:10.058688,13.19725759,.0001845,87.9182,303.8793,104.7939,255.3398,0,U,55805,999,15963,.21559954E-3,.99E-6,0
ONEWEB-0642,2023-029L,2026-06-22T15:11:21.419520,13.19725249,.00018409,87.9175,303.8918,125.9667,234.1636,0,U,55806,999,15962,.63208647E-4,.38E-6,0
ONEWEB-0643,2023-029M,2026-06-22T13:09:47.746656,13.14503616,.00020905,87.8959,288.6609,120.2633,239.8704,0,U,55807,999,16009,.36510514E-3,.148E-5,0
ONEWEB-0644,2023-029N,2026-06-22T15:04:31.644192,13.19724946,.00018582,87.9172,303.8941,111.0630,249.0701,0,U,55808,999,15962,.95277917E-4,.51E-6,0
ONEWEB-0645,2023-029P,2026-06-22T15:36:21.972384,13.19725475,.00014585,87.9173,303.8865,106.4298,253.6996,0,U,55809,999,15962,.22397269E-3,.103E-5,0
ONEWEB-0646,2023-029Q,2026-06-22T14:12:13.212576,13.19726061,.00018696,87.9176,303.8985,108.7957,251.3379,0,U,55810,999,15960,.5521657E-5,.15E-6,0
ONEWEB-0648,2023-029R,2026-06-22T17:52:56.316864,13.14501556,.0001385,87.8969,288.5957,126.6645,233.4612,0,U,55811,999,16012,-.17952583E-3,-.54E-6,0
ONEWEB-0649,2023-029S,2026-06-22T14:48:35.964288,13.19725945,.00016711,87.9175,303.8913,105.0460,255.0858,0,U,55812,999,15964,.28270728E-3,.126E-5,0
ONEWEB-0650,2023-029T,2026-06-22T14:41:47.618880,13.19729908,.00014945,87.9187,303.8973,116.0712,244.0574,0,U,55813,999,15961,-.52742413E-3,-.198E-5,0
ONEWEB-0652,2023-029U,2026-06-22T13:46:18.162912,13.14501841,.00020795,87.8967,288.6370,97.6434,262.4932,0,U,55814,999,16007,-.3938325E-3,-.133E-5,0
ONEWEB-0653,2023-029V,2026-06-22T13:23:28.460256,13.14503991,.00018907,87.8970,288.6382,98.4792,261.6553,0,U,55815,999,16010,.96481477E-4,.49E-6,0
ONEWEB-0654,2023-029W,2026-06-22T13:16:37.299936,13.14504289,.00020673,87.8967,288.6353,90.9225,269.2142,0,U,55816,999,16012,.15808807E-3,.71E-6,0
ONEWEB-0656,2023-029X,2026-06-22T17:37:53.258880,13.20773605,.0002227,87.9199,273.3245,89.7181,270.4207,0,U,55817,999,16188,-.93476622E-4,-.25E-6,0
ONEWEB-0657,2023-029Y,2026-06-22T14:34:58.074240,13.19725238,.00026097,87.9176,303.8946,99.1680,260.9748,0,U,55818,999,15962,.22021501E-3,.101E-5,0
ONEWEB-0658,2023-029Z,2026-06-22T18:06:29.734848,13.19724934,.00018623,87.9186,303.8412,112.7214,247.4116,0,U,55819,999,15965,-.42628048E-4,-.4E-7,0
ONEWEB-0660,2023-029AA,2026-06-22T18:13:29.268192,13.14504084,.00016101,87.8971,288.5876,102.3123,257.8187,0,U,55820,999,16013,.37413387E-3,.151E-5,0
ONEWEB-0661,2023-029AB,2026-06-22T13:34:54.690528,13.14502992,.00016164,87.8961,288.6704,97.1949,262.9364,0,U,55821,999,16009,-.3783056E-3,-.127E-5,0
ONEWEB-0662,2023-029AC,2026-06-22T14:25:08.860800,13.14503549,.00016021,87.8953,288.6692,102.4743,257.6567,0,U,55822,999,16014,.30077095E-3,.124E-5,0
ONEWEB-0663,2023-029AD,2026-06-22T16:36:45.157248,13.20870041,.0001655,87.9199,273.4044,110.0575,250.0737,0,U,55823,999,16187,.10728729E-3,.57E-6,0
ONEWEB-0664,2023-029AE,2026-06-22T08:13:03.719424,13.20770916,.00016947,87.9184,273.4546,88.4849,271.6478,0,U,55824,999,16182,.16107876E-3,.78E-6,0
ONEWEB-0665,2023-029AF,2026-06-22T13:30:20.543328,13.14503612,.00016267,87.8960,288.6518,105.5443,254.5867,0,U,55825,999,16011,-.16297556E-3,-.48E-6,0
ONEWEB-0666,2023-029AG,2026-06-22T13:30:37.846656,13.20771698,.00027291,87.9185,273.4004,100.9764,259.1677,0,U,55826,999,16186,-.10648288E-3,-.3E-6,0
