ONEWEB-0534             
1 55797U 23029B   26173.53263292  .00000044  00000+0  75575-4 0  9990
2 55797  87.9188 273.4042 0001905 101.6553 258.4794 13.20771912161857
ONEWEB-0556             
1 55798U 23029C   26173.53935421  .00000131  00000+0  29041-3 0  9994
2 55798  87.9183 273.4018 0001427  79.4178 280.7116 13.20774348161852
ONEWEB-0562             
1 55799U 23029D   26173.52589959  .00000070  00000+0  13950-3 0  9999
2 55799  87.9185 273.3857 0002103  76.2844 283.8523 13.20771391161853
ONEWEB-0563             
1 55800U 23029E   26173.67236442 -.00000003  00000+0 -39827-4 0  9994
2 55800  87.9185 273.3868 0001802 104.9371 255.1962 13.20772610161862
ONEWEB-0564             
1 55801U 23029F   26173.51412399 -.00000007  00000+0 -48581-4 0  9996
2 55801  87.9186 273.3918 0002089  89.2725 270.8648 13.20771321161858
ONEWEB-0638             
1 55802U 23029G   26173.34073146 -.00000116  00000+0 -34607-3 0  9995
2 55802  87.8960 288.7241 0001648  84.6848 275.4469 13.14504044160076
ONEWEB-0639             
1 55803U 23029H   26173.64236045  .00000043  00000+0  76007-4 0  9996
2 55803  87.9175 303.8889 0001581 131.1178 229.0092 13.19725784159620
ONEWEB-0640             
1 55804U 23029J   26173.57859015 -.00000194  00000+0 -55725-3 0  9999
2 55804  87.8958 288.6677 0001275  90.9843 269.1433 13.14503575160123
ONEWEB-0641             
1 55805U 23029K   26173.63761642  .00000099  00000+0  21560-3 0  9997
2 55805  87.9182 303.8793 0001845 104.7939 255.3398 13.19725759159632
ONEWEB-0642             
1 55806U 23029L   26173.63288680  .00000038  00000+0  63209-4 0  9994
2 55806  87.9175 303.8918 0001840 125.9667 234.1636 13.19725249159625
ONEWEB-0643             
1 55807U 23029M   26173.54846929  .00000148  00000+0  36511-3 0  9998
2 55807  87.8959 288.6609 0002090 120.2633 239.8704 13.14503616160099
ONEWEB-0644             
1 55808U 23029N   26173.62814403  .00000051  00000+0  95278-4 0  9999
2 55808  87.9172 303.8941 0001858 111.0630 249.0701 13.19724946159626
ONEWEB-0645             
1 55809U 23029P   26173.65025431  .00000103  00000+0  22397-3 0  9997
2 55809  87.9173 303.8865 0001458 106.4298 253.6996 13.19725475159622
ONEWEB-0646             
1 55810U 23029Q   26173.59181959  .00000015  00000+0  55217-5 0  9991
2 55810  87.9176 303.8985 0001869 108.7957 251.3379 13.19726061159603
ONEWEB-0648             
1 55811U 23029R   26173.74509626 -.00000054  00000+0 -17953-3 0  9992
2 55811  87.8969 288.5957 0001385 126.6645 233.4612 13.14501556160122
ONEWEB-0649             
1 55812U 23029S   26173.61708292  .00000126  00000+0  28271-3 0  9992
2 55812  87.9175 303.8913 0001671 105.0460 255.0858 13.19725945159642
ONEWEB-0650             
1 55813U 23029T   26173.61235670 -.00000198  00000+0 -52742-3 0  9999
2 55813  87.9187 303.8973 0001494 116.0712 244.0574 13.19729908159610
ONEWEB-0652             
1 55814U 23029U   26173.57382133 -.00000133  00000+0 -39383-3 0  9997
2 55814  87.8967 288.6370 0002079  97.6434 262.4932 13.14501841160075
ONEWEB-0653             
1 55815U 23029V   26173.55796829  .00000049  00000+0  96481-4 0  9994
2 55815  87.8970 288.6382 0001890  98.4792 261.6553 13.14503991160101
ONEWEB-0654             
1 55816U 23029W   26173.55320949  .00000071  00000+0  15809-3 0  9990
2 55816  87.8967 288.6353 0002067  90.9225 269.2142 13.14504289160122
ONEWEB-0656             
1 55817U 23029X   26173.73464420 -.00000025  00000+0 -93477-4 0  9993
2 55817  87.9199 273.3245 0002227  89.7181 270.4207 13.20773605161884
ONEWEB-0657             
1 55818U 23029Y   26173.60761660  .00000101  00000+0  22022-3 0  9996
2 55818  87.9176 303.8946 0002609  99.1680 260.9748 13.19725238159620
ONEWEB-0658             
1 55819U 23029Z   26173.75451082 -.00000004  00000+0 -42628-4 0  9996
2 55819  87.9186 303.8412 0001862 112.7214 247.4116 13.19724934159659
ONEWEB-0660             
1 55820U 23029AA  26173.75936653  .00000151  00000+0  37413-3 0  9996
2 55820  87.8971 288.5876 0001610 102.3123 257.8187 13.14504084160135
ONEWEB-0661             
1 55821U 23029AB  26173.56591077 -.00000127  00000+0 -37831-3 0  9992
2 55821  87.8961 288.6704 0001616  97.1949 262.9364 13.14502992160094
ONEWEB-0662             
1 55822U 23029AC  26173.60079700  .00000124  00000+0  30077-3 0  9992
2 55822  87.8953 288.6692 0001602 102.4743 257.6567 13.14503549160140
ONEWEB-0663             
1 55823U 23029AD  26173.69218932  .00000057  00000+0  10729-3 0  9991
2 55823  87.9199 273.4044 0001655 110.0575 250.0737 13.20870041161871
ONEWEB-0664             
1 55824U 23029AE  26173.34240416  .00000078  00000+0  16108-3 0  9996
2 55824  87.9184 273.4546 0001694  88.4849 271.6478 13.20770916161824
ONEWEB-0665             
1 55825U 23029AF  26173.56273777 -.00000048  00000+0 -16298-3 0  9996
2 55825  87.8960 288.6518 0001626 105.5443 254.5867 13.14503612160112
ONEWEB-0666             
1 55826U 23029AG  26173.56293804 -.00000030  00000+0 -10648-3 0  9994
2 55826  87.9185 273.4004 0002729 100.9764 259.1677 13.20771698161866
